[
  {
    "name": "Afghanistan",
    "nameZh": "é˜¿å¯Œæ±—",
    "nameKm": "á¢á¶á áŸ’áœá áŸ’á€á¶á“á¸áŸáŸ’áá¶á“",
    "code": "AF",
    "dialCode": "+93",
    "flagUri": "ğŸ‡¦ğŸ‡«"
  },
  {
    "name": "Ã…land Islands",
    "nameZh": "å¥¥å…°ç¾¤å²›",
    "nameKm": "á€áŸ„áŸ‡â€‹á¢á¶á¡á„áŸ‹",
    "code": "AX",
    "dialCode": "+358",
    "flagUri": "ğŸ‡¦ğŸ‡½"
  },
  {
    "name": "Albania",
    "nameZh": "é˜¿å°”å·´å°¼äºš",
    "nameKm": "á¢á¶á›áŸ‹á”á¶á“á¸",
    "code": "AL",
    "dialCode": "+355",
    "flagUri": "ğŸ‡¦ğŸ‡±"
  },
  {
    "name": "Algeria",
    "nameZh": "é˜¿å°”åŠåˆ©äºš",
    "nameKm": "á¢á¶á›áŸ‹á áŸ’áŸáŸášá¸",
    "code": "DZ",
    "dialCode": "+213",
    "flagUri": "ğŸ‡©ğŸ‡¿"
  },
  {
    "name": "American Samoa",
    "nameZh": "ç¾å±è¨æ‘©äºš",
    "nameKm": "áŸá¶á˜áŸáš á¢á¶á˜áŸášá·á€á¶áŸ†á„",
    "code": "AS",
    "dialCode": "+1684",
    "flagUri": "ğŸ‡¦ğŸ‡¸"
  },
  {
    "name": "Andorra",
    "nameZh": "å®‰é“å°”",
    "nameKm": "á¢á„áŸ‹áŠá¼ášáŸ‰á¶",
    "code": "AD",
    "dialCode": "+376",
    "flagUri": "ğŸ‡¦ğŸ‡©"
  },
  {
    "name": "Angola",
    "nameZh": "å®‰å“¥æ‹‰",
    "nameKm": "á¢á„áŸ‹á áŸ’á‚áŸ„á¡á¶",
    "code": "AO",
    "dialCode": "+244",
    "flagUri": "ğŸ‡¦ğŸ‡´"
  },
  {
    "name": "Anguilla",
    "nameZh": "å®‰åœ­æ‹‰",
    "nameKm": "á¢á„áŸ‹á áŸ’á‚á¸á¡á¶",
    "code": "AI",
    "dialCode": "+1264",
    "flagUri": "ğŸ‡¦ğŸ‡®"
  },
  {
    "name": "Antarctica",
    "nameZh": null,
    "nameKm": null,
    "code": "AQ",
    "dialCode": "+672",
    "flagUri": "ğŸ‡¦ğŸ‡¶"
  },
  {
    "name": "Antigua and Barbuda",
    "nameZh": "å®‰æç“œå’Œå·´å¸ƒè¾¾",
    "nameKm": "á¢á„áŸ‹á‘á¸á áŸ’á‚á¶ á“á·á„ á”á¶á”áŸŠá»á™áŠá¶",
    "code": "AG",
    "dialCode": "+1268",
    "flagUri": "ğŸ‡¦ğŸ‡¬"
  },
  {
    "name": "Argentina",
    "nameZh": "é˜¿æ ¹å»·",
    "nameKm": "á¢á¶á áŸ’áŸá„áŸ‹á‘á¸á“",
    "code": "AR",
    "dialCode": "+54",
    "flagUri": "ğŸ‡¦ğŸ‡·"
  },
  {
    "name": "Armenia",
    "nameZh": "äºšç¾å°¼äºš",
    "nameKm": "á¢á¶á˜áŸá“á¸",
    "code": "AM",
    "dialCode": "+374",
    "flagUri": "ğŸ‡¦ğŸ‡²"
  },
  {
    "name": "Aruba",
    "nameZh": "é˜¿é²å·´",
    "nameKm": "á¢á¶ášá¼á”á¶",
    "code": "AW",
    "dialCode": "+297",
    "flagUri": "ğŸ‡¦ğŸ‡¼"
  },
  {
    "name": "Australia",
    "nameZh": "æ¾³å¤§åˆ©äºš",
    "nameKm": "á¢á¼áŸáŸ’ááŸ’ášá¶á›á¸",
    "code": "AU",
    "dialCode": "+61",
    "flagUri": "ğŸ‡¦ğŸ‡º"
  },
  {
    "name": "Austria",
    "nameZh": "å¥¥åœ°åˆ©",
    "nameKm": "á¢á¼á‘áŸ’ášá¸áŸ",
    "code": "AT",
    "dialCode": "+43",
    "flagUri": "ğŸ‡¦ğŸ‡¹"
  },
  {
    "name": "Azerbaijan",
    "nameZh": "é˜¿å¡æ‹œç–†",
    "nameKm": "á¢á¶áŸáŸŠáŸ‚á”áŸƒá áŸ’áŸá„áŸ‹",
    "code": "AZ",
    "dialCode": "+994",
    "flagUri": "ğŸ‡¦ğŸ‡¿"
  },
  {
    "name": "Bahamas",
    "nameZh": "å·´å“ˆé©¬",
    "nameKm": "á”á¶á á¶á˜áŸ‰á¶",
    "code": "BS",
    "dialCode": "+1242",
    "flagUri": "ğŸ‡§ğŸ‡¸"
  },
  {
    "name": "Bahrain",
    "nameZh": "å·´æ—",
    "nameKm": "á”á¶ášáŸ‰áŸ‚á“",
    "code": "BH",
    "dialCode": "+973",
    "flagUri": "ğŸ‡§ğŸ‡­"
  },
  {
    "name": "Bangladesh",
    "nameZh": "å­ŸåŠ æ‹‰å›½",
    "nameKm": "á”á„áŸ‹á€áŸ’á›á¶áŠáŸ‚áŸ",
    "code": "BD",
    "dialCode": "+880",
    "flagUri": "ğŸ‡§ğŸ‡©"
  },
  {
    "name": "Barbados",
    "nameZh": "å·´å·´å¤šæ–¯",
    "nameKm": "á”á¶á”á¶áŠá»áŸ",
    "code": "BB",
    "dialCode": "+1246",
    "flagUri": "ğŸ‡§ğŸ‡§"
  },
  {
    "name": "Belarus",
    "nameZh": "ç™½ä¿„ç½—æ–¯",
    "nameKm": "á”áŸá¡á¶ášá»áŸ",
    "code": "BY",
    "dialCode": "+375",
    "flagUri": "ğŸ‡§ğŸ‡¾"
  },
  {
    "name": "Belgium",
    "nameZh": "æ¯”åˆ©æ—¶",
    "nameKm": "á”áŸ‚á›á áŸ’áŸáŸŠá·á€",
    "code": "BE",
    "dialCode": "+32",
    "flagUri": "ğŸ‡§ğŸ‡ª"
  },
  {
    "name": "Belize",
    "nameZh": "ä¼¯åˆ©å…¹",
    "nameKm": "á”áŸá›á¸",
    "code": "BZ",
    "dialCode": "+501",
    "flagUri": "ğŸ‡§ğŸ‡¿"
  },
  {
    "name": "Benin",
    "nameZh": "è´å®",
    "nameKm": "á”áŸáá¶áŸ†á„",
    "code": "BJ",
    "dialCode": "+229",
    "flagUri": "ğŸ‡§ğŸ‡¯"
  },
  {
    "name": "Bermuda",
    "nameZh": "ç™¾æ…•å¤§",
    "nameKm": "á”áŸŠáºá˜á»á™áŠá¶",
    "code": "BM",
    "dialCode": "+1441",
    "flagUri": "ğŸ‡§ğŸ‡²"
  },
  {
    "name": "Bhutan",
    "nameZh": "ä¸ä¸¹",
    "nameKm": "á”áŸŠá¼áá„áŸ‹",
    "code": "BT",
    "dialCode": "+975",
    "flagUri": "ğŸ‡§ğŸ‡¹"
  },
  {
    "name": "Bolivia, Plurinational State of bolivia",
    "nameZh": "ç»åˆ©ç»´äºš",
    "nameKm": "á”á¼á›á¸áœá¸",
    "code": "BO",
    "dialCode": "+591",
    "flagUri": "ğŸ‡§ğŸ‡´"
  },
  {
    "name": "Bosnia and Herzegovina",
    "nameZh": "æ³¢æ–¯å°¼äºšå’Œé»‘å¡å“¥ç»´é‚£",
    "nameKm": "á”á¼áŸáŸ’á“áŸŠá¸ á“á·á„á áºá áŸ’áŸáŸŠá¸á áŸ’á‚á¼áœá¸áá¶",
    "code": "BA",
    "dialCode": "+387",
    "flagUri": "ğŸ‡§ğŸ‡¦"
  },
  {
    "name": "Botswana",
    "nameZh": "åšèŒ¨ç“¦çº³",
    "nameKm": "á”á»ááŸáŸ’áœá¶áá¶",
    "code": "BW",
    "dialCode": "+267",
    "flagUri": "ğŸ‡§ğŸ‡¼"
  },
  {
    "name": "Bouvet Island",
    "nameZh": null,
    "nameKm": null,
    "code": "BV",
    "dialCode": "+47",
    "flagUri": "ğŸ‡§ğŸ‡»"
  },
  {
    "name": "Brazil",
    "nameZh": "å·´è¥¿",
    "nameKm": "á”áŸ’ášáŸáŸáŸŠá¸á›",
    "code": "BR",
    "dialCode": "+55",
    "flagUri": "ğŸ‡§ğŸ‡·"
  },
  {
    "name": "British Indian Ocean Territory",
    "nameZh": "æŸ¥æˆˆæ–¯ç¾¤å²›",
    "nameKm": "áŠáŸ‚á“áŠá¸â€‹á¢á„áŸ‹á‚áŸ’á›áŸáŸâ€‹á“áŸ…â€‹á˜á á¶â€‹áŸá˜á»á‘áŸ’ášâ€‹á¥ááŸ’áŒá¶",
    "code": "IO",
    "dialCode": "+246",
    "flagUri": "ğŸ‡®ğŸ‡´"
  },
  {
    "name": "Brunei Darussalam",
    "nameZh": "æ–‡è±",
    "nameKm": "á–áŸ’ášá»á™ááŸ",
    "code": "BN",
    "dialCode": "+673",
    "flagUri": "ğŸ‡§ğŸ‡³"
  },
  {
    "name": "Bulgaria",
    "nameZh": "ä¿åŠ åˆ©äºš",
    "nameKm": "á”áŸŠá»á›á áŸ’á€á¶ášá¸",
    "code": "BG",
    "dialCode": "+359",
    "flagUri": "ğŸ‡§ğŸ‡¬"
  },
  {
    "name": "Burkina Faso",
    "nameZh": "å¸ƒåŸºçº³æ³•ç´¢",
    "nameKm": "á”á½á‚á¸áá¶á áŸ’áœá¶áŸá¼",
    "code": "BF",
    "dialCode": "+226",
    "flagUri": "ğŸ‡§ğŸ‡«"
  },
  {
    "name": "Burundi",
    "nameZh": "å¸ƒéš†è¿ª",
    "nameKm": "á”áŸŠá¼ášá»á“áŒá¸",
    "code": "BI",
    "dialCode": "+257",
    "flagUri": "ğŸ‡§ğŸ‡®"
  },
  {
    "name": "Cambodia",
    "nameZh": "æŸ¬åŸ”å¯¨",
    "nameKm": "á€á˜áŸ’á–á»á‡á¶",
    "code": "KH",
    "dialCode": "+855",
    "flagUri": "ğŸ‡°ğŸ‡­"
  },
  {
    "name": "Cameroon",
    "nameZh": "å–€éº¦éš†",
    "nameKm": "á€á¶á˜áŸášá¼á“",
    "code": "CM",
    "dialCode": "+237",
    "flagUri": "ğŸ‡¨ğŸ‡²"
  },
  {
    "name": "Canada",
    "nameZh": "åŠ æ‹¿å¤§",
    "nameKm": "á€á¶áá¶áŠá¶",
    "code": "CA",
    "dialCode": "+1",
    "flagUri": "ğŸ‡¨ğŸ‡¦"
  },
  {
    "name": "Cape Verde",
    "nameZh": "ä½›å¾—è§’",
    "nameKm": "á€á¶á”áŸ‹áœáŸ‚áš",
    "code": "CV",
    "dialCode": "+238",
    "flagUri": "ğŸ‡¨ğŸ‡»"
  },
  {
    "name": "Cayman Islands",
    "nameZh": "å¼€æ›¼ç¾¤å²›",
    "nameKm": "á€áŸ„áŸ‡â€‹á€áŸƒá˜áŸ‰á„áŸ‹",
    "code": "KY",
    "dialCode": "+345",
    "flagUri": "ğŸ‡°ğŸ‡¾"
  },
  {
    "name": "Central African Republic",
    "nameZh": "ä¸­éå…±å’Œå›½",
    "nameKm": "áŸá¶á’á¶ášáášáŠáŸ’á‹á¢á¶á áŸ’áœáŸ’ášá·á€á€ááŸ’áŠá¶á›",
    "code": "CF",
    "dialCode": "+236",
    "flagUri": "ğŸ‡¨ğŸ‡«"
  },
  {
    "name": "Chad",
    "nameZh": "ä¹å¾—",
    "nameKm": "á†á¶áŠ",
    "code": "TD",
    "dialCode": "+235",
    "flagUri": "ğŸ‡¹ğŸ‡©"
  },
  {
    "name": "Chile",
    "nameZh": "æ™ºåˆ©",
    "nameKm": "áŸáŸŠá¸á›á¸",
    "code": "CL",
    "dialCode": "+56",
    "flagUri": "ğŸ‡¨ğŸ‡±"
  },
  {
    "name": "China",
    "nameZh": "ä¸­å›½",
    "nameKm": "á…á·á“",
    "code": "CN",
    "dialCode": "+86",
    "flagUri": "ğŸ‡¨ğŸ‡³"
  },
  {
    "name": "Christmas Island",
    "nameZh": "åœ£è¯å²›",
    "nameKm": "á€áŸ„áŸ‡â€‹á‚áŸ’ášá¸áŸáŸ’á˜á¶áŸ",
    "code": "CX",
    "dialCode": "+61",
    "flagUri": "ğŸ‡¨ğŸ‡½"
  },
  {
    "name": "Cocos (Keeling) Islands",
    "nameZh": "ç§‘ç§‘æ–¯ï¼ˆåŸºæ—ï¼‰ç¾¤å²›",
    "nameKm": "á€áŸ„áŸ‡â€‹á€á¼á€á¼áŸ (á‚á¸á›á¸á„)",
    "code": "CC",
    "dialCode": "+61",
    "flagUri": "ğŸ‡¨ğŸ‡¨"
  },
  {
    "name": "Colombia",
    "nameZh": "å“¥ä¼¦æ¯”äºš",
    "nameKm": "á€á¼á¡á»áŸ†á”áŸŠá¸",
    "code": "CO",
    "dialCode": "+57",
    "flagUri": "ğŸ‡¨ğŸ‡´"
  },
  {
    "name": "Comoros",
    "nameZh": "ç§‘æ‘©ç½—",
    "nameKm": "á€á¼á˜áŸáš",
    "code": "KM",
    "dialCode": "+269",
    "flagUri": "ğŸ‡°ğŸ‡²"
  },
  {
    "name": "Congo",
    "nameZh": "åˆšæœï¼ˆå¸ƒï¼‰",
    "nameKm": "á€á»á„á áŸ’á‚áŸ„ - á”áŸ’ášá¶á áŸ’áŸá¶áœá¸á›",
    "code": "CG",
    "dialCode": "+242",
    "flagUri": "ğŸ‡¨ğŸ‡¬"
  },
  {
    "name": "Congo, The Democratic Republic of the Congo",
    "nameZh": "åˆšæœï¼ˆé‡‘ï¼‰",
    "nameKm": "á€á»á„á áŸ’á‚áŸ„- á‚á¸á“áŸáŸ’á á¶áŸá¶",
    "code": "CD",
    "dialCode": "+243",
    "flagUri": "ğŸ‡¨ğŸ‡©"
  },
  {
    "name": "Cook Islands",
    "nameZh": "åº“å…‹ç¾¤å²›",
    "nameKm": "á€áŸ„áŸ‡â€‹áá¼á€",
    "code": "CK",
    "dialCode": "+682",
    "flagUri": "ğŸ‡¨ğŸ‡°"
  },
  {
    "name": "Costa Rica",
    "nameZh": "å“¥æ–¯è¾¾é»åŠ ",
    "nameKm": "á€á¼áŸáŸ’áá¶ášá¸á€á¶",
    "code": "CR",
    "dialCode": "+506",
    "flagUri": "ğŸ‡¨ğŸ‡·"
  },
  {
    "name": "Cote d'Ivoire",
    "nameZh": "ç§‘ç‰¹è¿ªç“¦",
    "nameKm": "á€á¼ááŒá¸áœáŸáš",
    "code": "CI",
    "dialCode": "+225",
    "flagUri": "ğŸ‡¨ğŸ‡®"
  },
  {
    "name": "Croatia",
    "nameZh": "å…‹ç½—åœ°äºš",
    "nameKm": "á€áŸ’ášá¼á¢á¶áŸáŸŠá¸",
    "code": "HR",
    "dialCode": "+385",
    "flagUri": "ğŸ‡­ğŸ‡·"
  },
  {
    "name": "Cuba",
    "nameZh": "å¤å·´",
    "nameKm": "á‚á»á™á”á¶",
    "code": "CU",
    "dialCode": "+53",
    "flagUri": "ğŸ‡¨ğŸ‡º"
  },
  {
    "name": "Cyprus",
    "nameZh": "å¡æµ¦è·¯æ–¯",
    "nameKm": "áŸáŸŠá¸á”",
    "code": "CY",
    "dialCode": "+357",
    "flagUri": "ğŸ‡¨ğŸ‡¾"
  },
  {
    "name": "Czech Republic",
    "nameZh": "æ·å…‹",
    "nameKm": "á†áŸ‚á€",
    "code": "CZ",
    "dialCode": "+420",
    "flagUri": "ğŸ‡¨ğŸ‡¿"
  },
  {
    "name": "Denmark",
    "nameZh": "ä¸¹éº¦",
    "nameKm": "áŠá¶ááºá˜áŸ‰á¶á€",
    "code": "DK",
    "dialCode": "+45",
    "flagUri": "ğŸ‡©ğŸ‡°"
  },
  {
    "name": "Djibouti",
    "nameZh": "å‰å¸ƒæ",
    "nameKm": "á‡á¸á”áŸŠá¼á‘á¸",
    "code": "DJ",
    "dialCode": "+253",
    "flagUri": "ğŸ‡©ğŸ‡¯"
  },
  {
    "name": "Dominica",
    "nameZh": "å¤šç±³å°¼å…‹",
    "nameKm": "áŠá¼á˜á¸á“á¸á€",
    "code": "DM",
    "dialCode": "+1767",
    "flagUri": "ğŸ‡©ğŸ‡²"
  },
  {
    "name": "Dominican Republic",
    "nameZh": "å¤šç±³å°¼åŠ å…±å’Œå›½",
    "nameKm": "áŸá¶á’á¶ášáášáŠáŸ’á‹â€‹áŠá¼á˜á¸á“á¸á€",
    "code": "DO",
    "dialCode": "+1849",
    "flagUri": "ğŸ‡©ğŸ‡´"
  },
  {
    "name": "Ecuador",
    "nameZh": "å„ç“œå¤šå°”",
    "nameKm": "á¢áŸá€áŸ’áœá¶á‘áŸáš",
    "code": "EC",
    "dialCode": "+593",
    "flagUri": "ğŸ‡ªğŸ‡¨"
  },
  {
    "name": "Egypt",
    "nameZh": "åŸƒåŠ",
    "nameKm": "á¢áŸá áŸ’áŸáŸŠá¸á”",
    "code": "EG",
    "dialCode": "+20",
    "flagUri": "ğŸ‡ªğŸ‡¬"
  },
  {
    "name": "El Salvador",
    "nameZh": "è¨å°”ç“¦å¤š",
    "nameKm": "á¢áŸ‚á›áŸá¶á›áŸ‹áœáŸ‰á¶áŒáŸáš",
    "code": "SV",
    "dialCode": "+503",
    "flagUri": "ğŸ‡¸ğŸ‡»"
  },
  {
    "name": "Equatorial Guinea",
    "nameZh": "èµ¤é“å‡ å†…äºš",
    "nameKm": "á áŸ’á‚á¸ááŸá¢áŸá€áŸ’áœá¶á‘áŸáš",
    "code": "GQ",
    "dialCode": "+240",
    "flagUri": "ğŸ‡¬ğŸ‡¶"
  },
  {
    "name": "Eritrea",
    "nameZh": "å„ç«‹ç‰¹é‡Œäºš",
    "nameKm": "á¢áŸášá¸ááŸ’ášáŸ",
    "code": "ER",
    "dialCode": "+291",
    "flagUri": "ğŸ‡ªğŸ‡·"
  },
  {
    "name": "Estonia",
    "nameZh": "çˆ±æ²™å°¼äºš",
    "nameKm": "á¢áŸáŸáŸ’áá¼á“á¸",
    "code": "EE",
    "dialCode": "+372",
    "flagUri": "ğŸ‡ªğŸ‡ª"
  },
  {
    "name": "Ethiopia",
    "nameZh": "åŸƒå¡ä¿„æ¯”äºš",
    "nameKm": "á¢áŸááŸ’á™á¼á–á¸",
    "code": "ET",
    "dialCode": "+251",
    "flagUri": "ğŸ‡ªğŸ‡¹"
  },
  {
    "name": "Falkland Islands (Malvinas)",
    "nameZh": "ç¦å…‹å…°ç¾¤å²›",
    "nameKm": "á€áŸ„áŸ‡â€‹á áŸ’áœá€áŸ‹á¡áŸ‚á“",
    "code": "FK",
    "dialCode": "+500",
    "flagUri": "ğŸ‡«ğŸ‡°"
  },
  {
    "name": "Faroe Islands",
    "nameZh": "æ³•ç½—ç¾¤å²›",
    "nameKm": "á€áŸ„áŸ‡â€‹á áŸ’áœá¶ášáŸ‰á¼",
    "code": "FO",
    "dialCode": "+298",
    "flagUri": "ğŸ‡«ğŸ‡´"
  },
  {
    "name": "Fiji",
    "nameZh": "æ–æµ",
    "nameKm": "á áŸ’áœá¸á‡á¸",
    "code": "FJ",
    "dialCode": "+679",
    "flagUri": "ğŸ‡«ğŸ‡¯"
  },
  {
    "name": "Finland",
    "nameZh": "èŠ¬å…°",
    "nameKm": "á áŸ’áœá¶áŸ†á„á¡á„áŸ‹",
    "code": "FI",
    "dialCode": "+358",
    "flagUri": "ğŸ‡«ğŸ‡®"
  },
  {
    "name": "France",
    "nameZh": "æ³•å›½",
    "nameKm": "á”á¶ášá¶áŸ†á„",
    "code": "FR",
    "dialCode": "+33",
    "flagUri": "ğŸ‡«ğŸ‡·"
  },
  {
    "name": "French Guiana",
    "nameZh": "æ³•å±åœ­äºšé‚£",
    "nameKm": "á áŸ’á‚á¸á¢á¶áá¶ á”á¶ášá¶áŸ†á„",
    "code": "GF",
    "dialCode": "+594",
    "flagUri": "ğŸ‡¬ğŸ‡«"
  },
  {
    "name": "French Polynesia",
    "nameZh": "æ³•å±æ³¢åˆ©å°¼è¥¿äºš",
    "nameKm": "á”áŸ‰á¼á›á¸â€‹ááŸáŸáŸŠá¸â€‹á”á¶ášá¶áŸ†á„",
    "code": "PF",
    "dialCode": "+689",
    "flagUri": "ğŸ‡µğŸ‡«"
  },
  {
    "name": "French Southern Territories",
    "nameZh": null,
    "nameKm": null,
    "code": "TF",
    "dialCode": "+262",
    "flagUri": "ğŸ‡¹ğŸ‡«"
  },
  {
    "name": "Gabon",
    "nameZh": "åŠ è“¬",
    "nameKm": "á áŸ’á‚á¶á”á»á„",
    "code": "GA",
    "dialCode": "+241",
    "flagUri": "ğŸ‡¬ğŸ‡¦"
  },
  {
    "name": "Gambia",
    "nameZh": "å†ˆæ¯”äºš",
    "nameKm": "á áŸ’á‚áŸ†á”áŸŠá¸",
    "code": "GM",
    "dialCode": "+220",
    "flagUri": "ğŸ‡¬ğŸ‡²"
  },
  {
    "name": "Georgia",
    "nameZh": "æ ¼é²å‰äºš",
    "nameKm": "á áŸ’áŸá€á áŸ’áŸáŸŠá¸",
    "code": "GE",
    "dialCode": "+995",
    "flagUri": "ğŸ‡¬ğŸ‡ª"
  },
  {
    "name": "Germany",
    "nameZh": "å¾·å›½",
    "nameKm": "á¢á¶á›áŸ’á›áºá˜áŸ‰á„áŸ‹",
    "code": "DE",
    "dialCode": "+49",
    "flagUri": "ğŸ‡©ğŸ‡ª"
  },
  {
    "name": "Ghana",
    "nameZh": "åŠ çº³",
    "nameKm": "á áŸ’á‚á¶áá¶",
    "code": "GH",
    "dialCode": "+233",
    "flagUri": "ğŸ‡¬ğŸ‡­"
  },
  {
    "name": "Gibraltar",
    "nameZh": "ç›´å¸ƒç½—é™€",
    "nameKm": "á áŸ’áŸáŸŠá¸á”áŸ’ášá¶á›áŸ‹áá¶",
    "code": "GI",
    "dialCode": "+350",
    "flagUri": "ğŸ‡¬ğŸ‡®"
  },
  {
    "name": "Greece",
    "nameZh": "å¸Œè…Š",
    "nameKm": "á€áŸ’ášá·á€",
    "code": "GR",
    "dialCode": "+30",
    "flagUri": "ğŸ‡¬ğŸ‡·"
  },
  {
    "name": "Greenland",
    "nameZh": "æ ¼é™µå…°",
    "nameKm": "á áŸ’á‚áŸ’ášáŸ„á¢á„áŸ‹á¡á„áŸ‹",
    "code": "GL",
    "dialCode": "+299",
    "flagUri": "ğŸ‡¬ğŸ‡±"
  },
  {
    "name": "Grenada",
    "nameZh": "æ ¼æ—çº³è¾¾",
    "nameKm": "á áŸ’á‚áŸ’ášá¾áá¶áŠ",
    "code": "GD",
    "dialCode": "+1473",
    "flagUri": "ğŸ‡¬ğŸ‡©"
  },
  {
    "name": "Guadeloupe",
    "nameZh": "ç“œå¾·ç½—æ™®",
    "nameKm": "á áŸ’á‚áŸ„áŠáºá¡á»á”",
    "code": "GP",
    "dialCode": "+590",
    "flagUri": "ğŸ‡¬ğŸ‡µ"
  },
  {
    "name": "Guam",
    "nameZh": "å…³å²›",
    "nameKm": "á áŸ’á‚á¶áŸ†",
    "code": "GU",
    "dialCode": "+1671",
    "flagUri": "ğŸ‡¬ğŸ‡º"
  },
  {
    "name": "Guatemala",
    "nameZh": "å±åœ°é©¬æ‹‰",
    "nameKm": "á€áŸ’áœá¶ááŸá˜áŸ‰á¶á¡á¶",
    "code": "GT",
    "dialCode": "+502",
    "flagUri": "ğŸ‡¬ğŸ‡¹"
  },
  {
    "name": "Guernsey",
    "nameZh": "æ ¹è¥¿å²›",
    "nameKm": "á áŸ’á‚áŸá“áŸáŸŠá¸",
    "code": "GG",
    "dialCode": "+44",
    "flagUri": "ğŸ‡¬ğŸ‡¬"
  },
  {
    "name": "Guinea",
    "nameZh": "å‡ å†…äºš",
    "nameKm": "á áŸ’á‚á¸ááŸ",
    "code": "GN",
    "dialCode": "+224",
    "flagUri": "ğŸ‡¬ğŸ‡³"
  },
  {
    "name": "Guinea-Bissau",
    "nameZh": "å‡ å†…äºšæ¯”ç»",
    "nameKm": "á áŸ’á‚á¸ááŸá”áŸŠá¸áŸáŸ’áŸá¼",
    "code": "GW",
    "dialCode": "+245",
    "flagUri": "ğŸ‡¬ğŸ‡¼"
  },
  {
    "name": "Guyana",
    "nameZh": "åœ­äºšé‚£",
    "nameKm": "á áŸ’á‚á¸á™áŸ‰á¶á“",
    "code": "GY",
    "dialCode": "+592",
    "flagUri": "ğŸ‡¬ğŸ‡¾"
  },
  {
    "name": "Haiti",
    "nameZh": "æµ·åœ°",
    "nameKm": "á áŸƒá‘á¸",
    "code": "HT",
    "dialCode": "+509",
    "flagUri": "ğŸ‡­ğŸ‡¹"
  },
  {
    "name": "Heard Island and Mcdonald Islands",
    "nameZh": null,
    "nameKm": null,
    "code": "HM",
    "dialCode": "+672",
    "flagUri": "ğŸ‡­ğŸ‡²"
  },
  {
    "name": "Holy See (Vatican City State)",
    "nameZh": "æ¢µè’‚å†ˆ",
    "nameKm": "á”á»ášá¸â€‹áœáŸ‰á¶á‘á¸á€á„áŸ‹",
    "code": "VA",
    "dialCode": "+379",
    "flagUri": "ğŸ‡»ğŸ‡¦"
  },
  {
    "name": "Honduras",
    "nameZh": "æ´ªéƒ½æ‹‰æ–¯",
    "nameKm": "á á»á„áŒá¼ášáŸ‰á¶áŸ",
    "code": "HN",
    "dialCode": "+504",
    "flagUri": "ğŸ‡­ğŸ‡³"
  },
  {
    "name": "Hong Kong",
    "nameZh": "é¦™æ¸¯",
    "nameKm": "á á»á„á€á»á„",
    "code": "HK",
    "dialCode": "+852",
    "flagUri": "ğŸ‡­ğŸ‡°"
  },
  {
    "name": "Hungary",
    "nameZh": "åŒˆç‰™åˆ©",
    "nameKm": "á á»á„á‚áŸ’ášá¸",
    "code": "HU",
    "dialCode": "+36",
    "flagUri": "ğŸ‡­ğŸ‡º"
  },
  {
    "name": "Iceland",
    "nameZh": "å†°å²›",
    "nameKm": "á¢áŸŠá¸áŸáŸ’á›á„áŸ‹",
    "code": "IS",
    "dialCode": "+354",
    "flagUri": "ğŸ‡®ğŸ‡¸"
  },
  {
    "name": "India",
    "nameZh": "å°åº¦",
    "nameKm": "á¥ááŸ’áŒá¶",
    "code": "IN",
    "dialCode": "+91",
    "flagUri": "ğŸ‡®ğŸ‡³"
  },
  {
    "name": "Indonesia",
    "nameZh": "å°åº¦å°¼è¥¿äºš",
    "nameKm": "á¥ááŸ’áŒá¼ááŸáŸáŸŠá¸",
    "code": "ID",
    "dialCode": "+62",
    "flagUri": "ğŸ‡®ğŸ‡©"
  },
  {
    "name": "Iran, Islamic Republic of Persian Gulf",
    "nameZh": "ä¼Šæœ—",
    "nameKm": "á¢áŸŠá¸ášáŸ‰á„áŸ‹",
    "code": "IR",
    "dialCode": "+98",
    "flagUri": "ğŸ‡®ğŸ‡·"
  },
  {
    "name": "Iraq",
    "nameZh": "ä¼Šæ‹‰å…‹",
    "nameKm": "á¢áŸŠá¸ášáŸ‰á¶á€áŸ‹",
    "code": "IQ",
    "dialCode": "+964",
    "flagUri": "ğŸ‡®ğŸ‡¶"
  },
  {
    "name": "Ireland",
    "nameZh": "çˆ±å°”å…°",
    "nameKm": "á¢áŸ€ášá¡á„áŸ‹",
    "code": "IE",
    "dialCode": "+353",
    "flagUri": "ğŸ‡®ğŸ‡ª"
  },
  {
    "name": "Isle of Man",
    "nameZh": "é©¬æ©å²›",
    "nameKm": "á¢áŸ‚á›á¢á»á áŸ’áœá˜áŸ‚á“",
    "code": "IM",
    "dialCode": "+44",
    "flagUri": "ğŸ‡®ğŸ‡²"
  },
  {
    "name": "Israel",
    "nameZh": "ä»¥è‰²åˆ—",
    "nameKm": "á¢áŸŠá¸áŸáŸ’ášá¶á¢áŸ‚á›",
    "code": "IL",
    "dialCode": "+972",
    "flagUri": "ğŸ‡®ğŸ‡±"
  },
  {
    "name": "Italy",
    "nameZh": "æ„å¤§åˆ©",
    "nameKm": "á¢áŸŠá¸áá¶á›á¸",
    "code": "IT",
    "dialCode": "+39",
    "flagUri": "ğŸ‡®ğŸ‡¹"
  },
  {
    "name": "Jamaica",
    "nameZh": "ç‰™ä¹°åŠ ",
    "nameKm": "á áŸ’áŸá¶á˜áŸ‰á¶á¢áŸŠá¸á€",
    "code": "JM",
    "dialCode": "+1876",
    "flagUri": "ğŸ‡¯ğŸ‡²"
  },
  {
    "name": "Japan",
    "nameZh": "æ—¥æœ¬",
    "nameKm": "á‡á”áŸ‰á»á“",
    "code": "JP",
    "dialCode": "+81",
    "flagUri": "ğŸ‡¯ğŸ‡µ"
  },
  {
    "name": "Jersey",
    "nameZh": "æ³½è¥¿å²›",
    "nameKm": "á‡á¾áŸáŸŠá¸",
    "code": "JE",
    "dialCode": "+44",
    "flagUri": "ğŸ‡¯ğŸ‡ª"
  },
  {
    "name": "Jordan",
    "nameZh": "çº¦æ—¦",
    "nameKm": "á áŸŠáŸ’áŸá€áŠá¶á“á¸",
    "code": "JO",
    "dialCode": "+962",
    "flagUri": "ğŸ‡¯ğŸ‡´"
  },
  {
    "name": "Kazakhstan",
    "nameZh": "å“ˆè¨å…‹æ–¯å¦",
    "nameKm": "á€á¶á áŸ’áŸá¶á€áŸ‹áŸáŸ’áá¶á“",
    "code": "KZ",
    "dialCode": "+7",
    "flagUri": "ğŸ‡°ğŸ‡¿"
  },
  {
    "name": "Kenya",
    "nameZh": "è‚¯å°¼äºš",
    "nameKm": "á€áŸá“á™áŸ‰á¶",
    "code": "KE",
    "dialCode": "+254",
    "flagUri": "ğŸ‡°ğŸ‡ª"
  },
  {
    "name": "Kiribati",
    "nameZh": "åŸºé‡Œå·´æ–¯",
    "nameKm": "á‚á·ášá¸á”á¶á‘á¸",
    "code": "KI",
    "dialCode": "+686",
    "flagUri": "ğŸ‡°ğŸ‡®"
  },
  {
    "name": "Korea, Democratic People's Republic of Korea",
    "nameZh": "æœé²œ",
    "nameKm": "á€á¼ášáŸ‰áŸâ€‹áá¶á„â€‹á‡á¾á„",
    "code": "KP",
    "dialCode": "+850",
    "flagUri": "ğŸ‡°ğŸ‡µ"
  },
  {
    "name": "Korea, Republic of South Korea",
    "nameZh": "éŸ©å›½",
    "nameKm": "á€á¼ášáŸ‰áŸâ€‹áá¶á„â€‹ááŸ’á”á¼á„",
    "code": "KR",
    "dialCode": "+82",
    "flagUri": "ğŸ‡°ğŸ‡·"
  },
  {
    "name": "Kosovo",
    "nameZh": "ç§‘ç´¢æ²ƒ",
    "nameKm": "á€á¼áŸá¼áœáŸ‰á¼",
    "code": "XK",
    "dialCode": "+383",
    "flagUri": "ğŸ‡½ğŸ‡°"
  },
  {
    "name": "Kuwait",
    "nameZh": "ç§‘å¨ç‰¹",
    "nameKm": "á€á¼áœáŸ‰áŸ‚á",
    "code": "KW",
    "dialCode": "+965",
    "flagUri": "ğŸ‡°ğŸ‡¼"
  },
  {
    "name": "Kyrgyzstan",
    "nameZh": "å‰å°”å‰æ–¯æ–¯å¦",
    "nameKm": "á€áŸ€á áŸ’áŸáŸŠá¸áŸáŸŠá¸áŸáŸ’áá¶á“",
    "code": "KG",
    "dialCode": "+996",
    "flagUri": "ğŸ‡°ğŸ‡¬"
  },
  {
    "name": "Laos",
    "nameZh": "è€æŒ",
    "nameKm": "á¡á¶áœ",
    "code": "LA",
    "dialCode": "+856",
    "flagUri": "ğŸ‡±ğŸ‡¦"
  },
  {
    "name": "Latvia",
    "nameZh": "æ‹‰è„±ç»´äºš",
    "nameKm": "á¡áŸáá¼á“á¸",
    "code": "LV",
    "dialCode": "+371",
    "flagUri": "ğŸ‡±ğŸ‡»"
  },
  {
    "name": "Lebanon",
    "nameZh": "é»å·´å«©",
    "nameKm": "á›á¸á”á„áŸ‹",
    "code": "LB",
    "dialCode": "+961",
    "flagUri": "ğŸ‡±ğŸ‡§"
  },
  {
    "name": "Lesotho",
    "nameZh": "è±ç´¢æ‰˜",
    "nameKm": "á¡áŸáŸá¼áá¼",
    "code": "LS",
    "dialCode": "+266",
    "flagUri": "ğŸ‡±ğŸ‡¸"
  },
  {
    "name": "Liberia",
    "nameZh": "åˆ©æ¯”é‡Œäºš",
    "nameKm": "á›á¸á”áŸášá¸á™áŸ‰á¶",
    "code": "LR",
    "dialCode": "+231",
    "flagUri": "ğŸ‡±ğŸ‡·"
  },
  {
    "name": "Libyan Arab Jamahiriya",
    "nameZh": "åˆ©æ¯”äºš",
    "nameKm": "á›á¸á”áŸŠá¸",
    "code": "LY",
    "dialCode": "+218",
    "flagUri": "ğŸ‡±ğŸ‡¾"
  },
  {
    "name": "Liechtenstein",
    "nameZh": "åˆ—æ”¯æ•¦å£«ç™»",
    "nameKm": "á›á·á…áá·á“áŸáŸ’áŠá¶á‰",
    "code": "LI",
    "dialCode": "+423",
    "flagUri": "ğŸ‡±ğŸ‡®"
  },
  {
    "name": "Lithuania",
    "nameZh": "ç«‹é™¶å®›",
    "nameKm": "á›á¸á‘á»á™á¢á¶á“á¸",
    "code": "LT",
    "dialCode": "+370",
    "flagUri": "ğŸ‡±ğŸ‡¹"
  },
  {
    "name": "Luxembourg",
    "nameZh": "å¢æ£®å ¡",
    "nameKm": "á›á»á…áŸáŸ†á”á½",
    "code": "LU",
    "dialCode": "+352",
    "flagUri": "ğŸ‡±ğŸ‡º"
  },
  {
    "name": "Macao",
    "nameZh": "æ¾³é—¨",
    "nameKm": "á˜áŸ‰á¶á€á¶áœ",
    "code": "MO",
    "dialCode": "+853",
    "flagUri": "ğŸ‡²ğŸ‡´"
  },
  {
    "name": "Macedonia",
    "nameZh": "åŒ—é©¬å…¶é¡¿",
    "nameKm": "á˜áŸ‰á¶áŸáŸáŠáŸ’áœá¶á“áá¶á„á‡á¾á„",
    "code": "MK",
    "dialCode": "+389",
    "flagUri": "ğŸ‡²ğŸ‡°"
  },
  {
    "name": "Madagascar",
    "nameZh": "é©¬è¾¾åŠ æ–¯åŠ ",
    "nameKm": "á˜áŸ‰á¶áŠá¶á áŸ’á‚á¶áŸáŸ’á€á¶",
    "code": "MG",
    "dialCode": "+261",
    "flagUri": "ğŸ‡²ğŸ‡¬"
  },
  {
    "name": "Malawi",
    "nameZh": "é©¬æ‹‰ç»´",
    "nameKm": "á˜áŸ‰á¶á¡á¶áœá¸",
    "code": "MW",
    "dialCode": "+265",
    "flagUri": "ğŸ‡²ğŸ‡¼"
  },
  {
    "name": "Malaysia",
    "nameZh": "é©¬æ¥è¥¿äºš",
    "nameKm": "á˜áŸ‰á¶á¡áŸáŸáŸŠá¸",
    "code": "MY",
    "dialCode": "+60",
    "flagUri": "ğŸ‡²ğŸ‡¾"
  },
  {
    "name": "Maldives",
    "nameZh": "é©¬å°”ä»£å¤«",
    "nameKm": "á˜áŸ‰á¶á›áŸ‹áŒá¸áœ",
    "code": "MV",
    "dialCode": "+960",
    "flagUri": "ğŸ‡²ğŸ‡»"
  },
  {
    "name": "Mali",
    "nameZh": "é©¬é‡Œ",
    "nameKm": "á˜áŸ‰á¶á›á¸",
    "code": "ML",
    "dialCode": "+223",
    "flagUri": "ğŸ‡²ğŸ‡±"
  },
  {
    "name": "Malta",
    "nameZh": "é©¬è€³ä»–",
    "nameKm": "á˜áŸ‰á¶á›áŸ‹ááŸ",
    "code": "MT",
    "dialCode": "+356",
    "flagUri": "ğŸ‡²ğŸ‡¹"
  },
  {
    "name": "Marshall Islands",
    "nameZh": "é©¬ç»å°”ç¾¤å²›",
    "nameKm": "á€áŸ„áŸ‡â€‹á˜áŸ‰á¶áŸáŸ‹áŸá›",
    "code": "MH",
    "dialCode": "+692",
    "flagUri": "ğŸ‡²ğŸ‡­"
  },
  {
    "name": "Martinique",
    "nameZh": "é©¬æå°¼å…‹",
    "nameKm": "á˜áŸ‰á¶á‘á¸á“á¸á€",
    "code": "MQ",
    "dialCode": "+596",
    "flagUri": "ğŸ‡²ğŸ‡¶"
  },
  {
    "name": "Mauritania",
    "nameZh": "æ¯›é‡Œå¡”å°¼äºš",
    "nameKm": "á˜áŸ‰á¼ášá¸áá¶á“á¸",
    "code": "MR",
    "dialCode": "+222",
    "flagUri": "ğŸ‡²ğŸ‡·"
  },
  {
    "name": "Mauritius",
    "nameZh": "æ¯›é‡Œæ±‚æ–¯",
    "nameKm": "á˜áŸ‰á¼ášá¸áŸ",
    "code": "MU",
    "dialCode": "+230",
    "flagUri": "ğŸ‡²ğŸ‡º"
  },
  {
    "name": "Mayotte",
    "nameZh": "é©¬çº¦ç‰¹",
    "nameKm": "á˜áŸ‰á¶á™á»á",
    "code": "YT",
    "dialCode": "+262",
    "flagUri": "ğŸ‡¾ğŸ‡¹"
  },
  {
    "name": "Mexico",
    "nameZh": "å¢¨è¥¿å“¥",
    "nameKm": "á˜áŸ‰á·á€áŸáŸŠá·á€",
    "code": "MX",
    "dialCode": "+52",
    "flagUri": "ğŸ‡²ğŸ‡½"
  },
  {
    "name": "Micronesia, Federated States of Micronesia",
    "nameZh": "å¯†å…‹ç½—å°¼è¥¿äºš",
    "nameKm": "á˜á¸á€áŸ’ášá¼ááŸáŸáŸŠá¸",
    "code": "FM",
    "dialCode": "+691",
    "flagUri": "ğŸ‡«ğŸ‡²"
  },
  {
    "name": "Moldova",
    "nameZh": "æ‘©å°”å¤šç“¦",
    "nameKm": "á˜áŸ‰á»á›áŠá¶áœá¸",
    "code": "MD",
    "dialCode": "+373",
    "flagUri": "ğŸ‡²ğŸ‡©"
  },
  {
    "name": "Monaco",
    "nameZh": "æ‘©çº³å“¥",
    "nameKm": "á˜áŸ‰á¼áá¶á€á¼",
    "code": "MC",
    "dialCode": "+377",
    "flagUri": "ğŸ‡²ğŸ‡¨"
  },
  {
    "name": "Mongolia",
    "nameZh": "è’™å¤",
    "nameKm": "á˜áŸ‰á»á„á áŸ’á‚áŸ„á›á¸",
    "code": "MN",
    "dialCode": "+976",
    "flagUri": "ğŸ‡²ğŸ‡³"
  },
  {
    "name": "Montenegro",
    "nameZh": "é»‘å±±",
    "nameKm": "á˜áŸ‰á»á„ááŸááŸá áŸ’á‚áŸ’ášáŸ„",
    "code": "ME",
    "dialCode": "+382",
    "flagUri": "ğŸ‡²ğŸ‡ª"
  },
  {
    "name": "Montserrat",
    "nameZh": "è’™ç‰¹å¡æ‹‰ç‰¹",
    "nameKm": "á˜áŸ‰á»á„áŸáŸŠáŸ‚ášáŸ‰á¶",
    "code": "MS",
    "dialCode": "+1664",
    "flagUri": "ğŸ‡²ğŸ‡¸"
  },
  {
    "name": "Morocco",
    "nameZh": "æ‘©æ´›å“¥",
    "nameKm": "á˜áŸ‰á¶ášáŸ‰á»á€",
    "code": "MA",
    "dialCode": "+212",
    "flagUri": "ğŸ‡²ğŸ‡¦"
  },
  {
    "name": "Mozambique",
    "nameZh": "è«æ¡‘æ¯”å…‹",
    "nameKm": "á˜áŸ‰á¼áŸáŸ†á”áŸŠá·á€",
    "code": "MZ",
    "dialCode": "+258",
    "flagUri": "ğŸ‡²ğŸ‡¿"
  },
  {
    "name": "Myanmar",
    "nameZh": "ç¼…ç”¸",
    "nameKm": "á˜á¸á™áŸ‰á¶á“áŸ‹á˜áŸ‰á¶ (á—á¼á˜á¶)",
    "code": "MM",
    "dialCode": "+95",
    "flagUri": "ğŸ‡²ğŸ‡²"
  },
  {
    "name": "Namibia",
    "nameZh": "çº³ç±³æ¯”äºš",
    "nameKm": "áá¶á˜á¸á”áŸŠá¸",
    "code": "NA",
    "dialCode": "+264",
    "flagUri": "ğŸ‡³ğŸ‡¦"
  },
  {
    "name": "Nauru",
    "nameZh": "ç‘™é²",
    "nameKm": "áá¼ášá¼",
    "code": "NR",
    "dialCode": "+674",
    "flagUri": "ğŸ‡³ğŸ‡·"
  },
  {
    "name": "Nepal",
    "nameZh": "å°¼æ³Šå°”",
    "nameKm": "á“áŸá”áŸ‰á¶á›áŸ‹",
    "code": "NP",
    "dialCode": "+977",
    "flagUri": "ğŸ‡³ğŸ‡µ"
  },
  {
    "name": "Netherlands",
    "nameZh": "è·å…°",
    "nameKm": "á á¼á¡á„áŸ‹",
    "code": "NL",
    "dialCode": "+31",
    "flagUri": "ğŸ‡³ğŸ‡±"
  },
  {
    "name": "Netherlands Antilles",
    "nameZh": null,
    "nameKm": null,
    "code": "AN",
    "dialCode": "+599",
    "flagUri": ""
  },
  {
    "name": "New Caledonia",
    "nameZh": "æ–°å–€é‡Œå¤šå°¼äºš",
    "nameKm": "á“á¼áœáŸ‚á›â€‹á€á¶á¡áŸáŠá¼á“á¸",
    "code": "NC",
    "dialCode": "+687",
    "flagUri": "ğŸ‡³ğŸ‡¨"
  },
  {
    "name": "New Zealand",
    "nameZh": "æ–°è¥¿å…°",
    "nameKm": "á“á¼áœáŸ‚á›â€‹áŸáŸá¡á„áŸ‹",
    "code": "NZ",
    "dialCode": "+64",
    "flagUri": "ğŸ‡³ğŸ‡¿"
  },
  {
    "name": "Nicaragua",
    "nameZh": "å°¼åŠ æ‹‰ç“œ",
    "nameKm": "á“á¸á€á¶ášáŸ‰á¶á áŸ’á‚á¶",
    "code": "NI",
    "dialCode": "+505",
    "flagUri": "ğŸ‡³ğŸ‡®"
  },
  {
    "name": "Niger",
    "nameZh": "å°¼æ—¥å°”",
    "nameKm": "á“á¸á áŸ’áŸáŸ",
    "code": "NE",
    "dialCode": "+227",
    "flagUri": "ğŸ‡³ğŸ‡ª"
  },
  {
    "name": "Nigeria",
    "nameZh": "å°¼æ—¥åˆ©äºš",
    "nameKm": "á“á¸á áŸ’áŸáŸášá¸á™áŸ‰á¶",
    "code": "NG",
    "dialCode": "+234",
    "flagUri": "ğŸ‡³ğŸ‡¬"
  },
  {
    "name": "Niue",
    "nameZh": "çº½åŸƒ",
    "nameKm": "ááŸ€",
    "code": "NU",
    "dialCode": "+683",
    "flagUri": "ğŸ‡³ğŸ‡º"
  },
  {
    "name": "Norfolk Island",
    "nameZh": "è¯ºç¦å…‹å²›",
    "nameKm": "á€áŸ„áŸ‡â€‹ááŸášá áŸ’áœá€áŸ‹",
    "code": "NF",
    "dialCode": "+672",
    "flagUri": "ğŸ‡³ğŸ‡«"
  },
  {
    "name": "Northern Mariana Islands",
    "nameZh": "åŒ—é©¬é‡Œäºšçº³ç¾¤å²›",
    "nameKm": "á€áŸ„áŸ‡â€‹á˜áŸ‰á¶ášá¸áá¶â€‹áá¶á„â€‹á‡á¾á„",
    "code": "MP",
    "dialCode": "+1670",
    "flagUri": "ğŸ‡²ğŸ‡µ"
  },
  {
    "name": "Norway",
    "nameZh": "æŒªå¨",
    "nameKm": "á“áŸášáœáŸ‚áŸ",
    "code": "NO",
    "dialCode": "+47",
    "flagUri": "ğŸ‡³ğŸ‡´"
  },
  {
    "name": "Oman",
    "nameZh": "é˜¿æ›¼",
    "nameKm": "á¢á¼á˜áŸ‰á„áŸ‹",
    "code": "OM",
    "dialCode": "+968",
    "flagUri": "ğŸ‡´ğŸ‡²"
  },
  {
    "name": "Pakistan",
    "nameZh": "å·´åŸºæ–¯å¦",
    "nameKm": "á”áŸ‰á¶á‚á¸áŸáŸ’áá¶á“",
    "code": "PK",
    "dialCode": "+92",
    "flagUri": "ğŸ‡µğŸ‡°"
  },
  {
    "name": "Palau",
    "nameZh": "å¸•åŠ³",
    "nameKm": "á•áŸ…á¡á¼",
    "code": "PW",
    "dialCode": "+680",
    "flagUri": "ğŸ‡µğŸ‡¼"
  },
  {
    "name": "Palestinian Territory, Occupied",
    "nameZh": "å·´å‹’æ–¯å¦é¢†åœŸ",
    "nameKm": "áŠáŸ‚á“áŠá¸á”áŸ‰á¶á¡áŸáŸáŸ’á‘á¸á“",
    "code": "PS",
    "dialCode": "+970",
    "flagUri": "ğŸ‡µğŸ‡¸"
  },
  {
    "name": "Panama",
    "nameZh": "å·´æ‹¿é©¬",
    "nameKm": "á”áŸ‰á¶áá¶á˜áŸ‰á¶",
    "code": "PA",
    "dialCode": "+507",
    "flagUri": "ğŸ‡µğŸ‡¦"
  },
  {
    "name": "Papua New Guinea",
    "nameZh": "å·´å¸ƒäºšæ–°å‡ å†…äºš",
    "nameKm": "á”áŸ‰á¶á–á¼á¢á¶áŸáŸŠá¸â€‹á“á¼áœáŸ‚á›á áŸ’á‚á¸ááŸ",
    "code": "PG",
    "dialCode": "+675",
    "flagUri": "ğŸ‡µğŸ‡¬"
  },
  {
    "name": "Paraguay",
    "nameZh": "å·´æ‹‰åœ­",
    "nameKm": "á”áŸ‰á¶ášáŸ‰á¶á áŸ’á‚á¶á™",
    "code": "PY",
    "dialCode": "+595",
    "flagUri": "ğŸ‡µğŸ‡¾"
  },
  {
    "name": "Peru",
    "nameZh": "ç§˜é²",
    "nameKm": "á”áŸ‰áŸášá¼",
    "code": "PE",
    "dialCode": "+51",
    "flagUri": "ğŸ‡µğŸ‡ª"
  },
  {
    "name": "Philippines",
    "nameZh": "è²å¾‹å®¾",
    "nameKm": "á áŸ’áœáŸŠá¸á›á¸á–á¸á“",
    "code": "PH",
    "dialCode": "+63",
    "flagUri": "ğŸ‡µğŸ‡­"
  },
  {
    "name": "Pitcairn",
    "nameZh": null,
    "nameKm": null,
    "code": "PN",
    "dialCode": "+64",
    "flagUri": "ğŸ‡µğŸ‡³"
  },
  {
    "name": "Poland",
    "nameZh": "æ³¢å…°",
    "nameKm": "á”áŸ‰á¼á¡á¼á‰",
    "code": "PL",
    "dialCode": "+48",
    "flagUri": "ğŸ‡µğŸ‡±"
  },
  {
    "name": "Portugal",
    "nameZh": "è‘¡è„ç‰™",
    "nameKm": "á–áŸášá‘á»á™á áŸ’á€á¶á›áŸ‹",
    "code": "PT",
    "dialCode": "+351",
    "flagUri": "ğŸ‡µğŸ‡¹"
  },
  {
    "name": "Puerto Rico",
    "nameZh": "æ³¢å¤šé»å„",
    "nameKm": "á–áŸášáá¼ášá¸á€á¼",
    "code": "PR",
    "dialCode": "+1939",
    "flagUri": "ğŸ‡µğŸ‡·"
  },
  {
    "name": "Qatar",
    "nameZh": "å¡å¡”å°”",
    "nameKm": "á€á¶áá¶",
    "code": "QA",
    "dialCode": "+974",
    "flagUri": "ğŸ‡¶ğŸ‡¦"
  },
  {
    "name": "Romania",
    "nameZh": "ç½—é©¬å°¼äºš",
    "nameKm": "ášá¼á˜áŸ‰á¶á“á¸",
    "code": "RO",
    "dialCode": "+40",
    "flagUri": "ğŸ‡·ğŸ‡´"
  },
  {
    "name": "Russia",
    "nameZh": "ä¿„ç½—æ–¯",
    "nameKm": "ášá»áŸáŸ’áŸáŸŠá¸",
    "code": "RU",
    "dialCode": "+7",
    "flagUri": "ğŸ‡·ğŸ‡º"
  },
  {
    "name": "Rwanda",
    "nameZh": "å¢æ—ºè¾¾",
    "nameKm": "ášáœáŸ‰á¶á“áŸ‹áŠá¶",
    "code": "RW",
    "dialCode": "+250",
    "flagUri": "ğŸ‡·ğŸ‡¼"
  },
  {
    "name": "Reunion",
    "nameZh": "ç•™å°¼æ±ª",
    "nameKm": "ášáŸá¢á»á™á‰áŸ‰á»á„",
    "code": "RE",
    "dialCode": "+262",
    "flagUri": "ğŸ‡·ğŸ‡ª"
  },
  {
    "name": "Saint Barthelemy",
    "nameZh": "åœ£å·´æ³°å‹’ç±³",
    "nameKm": "áŸá¶áŸ†á„â€‹á”á¶ááŸá¡áŸá˜á¸",
    "code": "BL",
    "dialCode": "+590",
    "flagUri": "ğŸ‡§ğŸ‡±"
  },
  {
    "name": "Saint Helena, Ascension and Tristan Da Cunha",
    "nameZh": "åœ£èµ«å‹’æ‹¿",
    "nameKm": "áŸá„áŸ‹â€‹á áŸá¡áŸáá¶",
    "code": "SH",
    "dialCode": "+290",
    "flagUri": "ğŸ‡¸ğŸ‡­"
  },
  {
    "name": "Saint Kitts and Nevis",
    "nameZh": "åœ£åŸºèŒ¨å’Œå°¼ç»´æ–¯",
    "nameKm": "áŸá¶áŸ†á„â€‹á‚á¸á á“á·á„ ááŸáœá¸áŸ",
    "code": "KN",
    "dialCode": "+1869",
    "flagUri": "ğŸ‡°ğŸ‡³"
  },
  {
    "name": "Saint Lucia",
    "nameZh": "åœ£å¢è¥¿äºš",
    "nameKm": "áŸá¶áŸ†á„á›á¼áŸáŸŠá¸",
    "code": "LC",
    "dialCode": "+1758",
    "flagUri": "ğŸ‡±ğŸ‡¨"
  },
  {
    "name": "Saint Martin",
    "nameZh": "æ³•å±åœ£é©¬ä¸",
    "nameKm": "áŸá¶áŸ†á„â€‹á˜áŸ‰á¶á‘á¸á“",
    "code": "MF",
    "dialCode": "+590",
    "flagUri": "ğŸ‡²ğŸ‡«"
  },
  {
    "name": "Saint Pierre and Miquelon",
    "nameZh": "åœ£çš®åŸƒå°”å’Œå¯†å…‹éš†ç¾¤å²›",
    "nameKm": "áŸá„áŸ‹á–áŸ’á™áŸ‚áš á“á·á„â€‹á˜á¸á‚á¸á¡á»á„",
    "code": "PM",
    "dialCode": "+508",
    "flagUri": "ğŸ‡µğŸ‡²"
  },
  {
    "name": "Saint Vincent and the Grenadines",
    "nameZh": "åœ£æ–‡æ£®ç‰¹å’Œæ ¼æ—çº³ä¸æ–¯",
    "nameKm": "áŸá¶áŸ†á„â€‹áœáŸ‰á¶áŸ†á„áŸá„áŸ‹ á“á·á„ á áŸ’á‚áŸ’ášáŸáá¶áŒá¸á“",
    "code": "VC",
    "dialCode": "+1784",
    "flagUri": "ğŸ‡»ğŸ‡¨"
  },
  {
    "name": "Samoa",
    "nameZh": "è¨æ‘©äºš",
    "nameKm": "áŸá¶á˜áŸáš",
    "code": "WS",
    "dialCode": "+685",
    "flagUri": "ğŸ‡¼ğŸ‡¸"
  },
  {
    "name": "San Marino",
    "nameZh": "åœ£é©¬åŠ›è¯º",
    "nameKm": "áŸá¶á“â€‹á˜áŸ‰á¶ášá¸áá¼",
    "code": "SM",
    "dialCode": "+378",
    "flagUri": "ğŸ‡¸ğŸ‡²"
  },
  {
    "name": "Sao Tome and Principe",
    "nameZh": "åœ£å¤šç¾å’Œæ™®æ—è¥¿æ¯”",
    "nameKm": "áŸáŸ…áá¼á˜áŸ‰áŸ á“á·á„ á”áŸ’ášá¶áŸ†á„áŸáŸŠá¸á”",
    "code": "ST",
    "dialCode": "+239",
    "flagUri": "ğŸ‡¸ğŸ‡¹"
  },
  {
    "name": "Saudi Arabia",
    "nameZh": "æ²™ç‰¹é˜¿æ‹‰ä¼¯",
    "nameKm": "á¢á¶ášáŸ‰á¶á”áŸŠá¸áŸá¶á¢á¼áŒá¸á",
    "code": "SA",
    "dialCode": "+966",
    "flagUri": "ğŸ‡¸ğŸ‡¦"
  },
  {
    "name": "Senegal",
    "nameZh": "å¡å†…åŠ å°”",
    "nameKm": "áŸáŸááŸá áŸ’á‚á¶á›áŸ‹",
    "code": "SN",
    "dialCode": "+221",
    "flagUri": "ğŸ‡¸ğŸ‡³"
  },
  {
    "name": "Serbia",
    "nameZh": "å¡å°”ç»´äºš",
    "nameKm": "áŸáŸ‚á”áŸŠá¸",
    "code": "RS",
    "dialCode": "+381",
    "flagUri": "ğŸ‡·ğŸ‡¸"
  },
  {
    "name": "Seychelles",
    "nameZh": "å¡èˆŒå°”",
    "nameKm": "áŸá¸áŸáŸ’á áŸ‚á›",
    "code": "SC",
    "dialCode": "+248",
    "flagUri": "ğŸ‡¸ğŸ‡¨"
  },
  {
    "name": "Sierra Leone",
    "nameZh": "å¡æ‹‰åˆ©æ˜‚",
    "nameKm": "áŸáŸ€ášáŸ‰á¶á¡áŸá¢á¼á“",
    "code": "SL",
    "dialCode": "+232",
    "flagUri": "ğŸ‡¸ğŸ‡±"
  },
  {
    "name": "Singapore",
    "nameZh": "æ–°åŠ å¡",
    "nameKm": "áŸá·á„áŸ’á á”á»ášá¸",
    "code": "SG",
    "dialCode": "+65",
    "flagUri": "ğŸ‡¸ğŸ‡¬"
  },
  {
    "name": "Slovakia",
    "nameZh": "æ–¯æ´›ä¼å…‹",
    "nameKm": "áŸáŸ’á›á¼áœáŸ‰á¶á‚á¸",
    "code": "SK",
    "dialCode": "+421",
    "flagUri": "ğŸ‡¸ğŸ‡°"
  },
  {
    "name": "Slovenia",
    "nameZh": "æ–¯æ´›æ–‡å°¼äºš",
    "nameKm": "áŸáŸ’á›á¼áœáŸá“á¸",
    "code": "SI",
    "dialCode": "+386",
    "flagUri": "ğŸ‡¸ğŸ‡®"
  },
  {
    "name": "Solomon Islands",
    "nameZh": "æ‰€ç½—é—¨ç¾¤å²›",
    "nameKm": "á€áŸ„áŸ‡â€‹áŸá¼á¡á¼á˜áŸ‰á»á„",
    "code": "SB",
    "dialCode": "+677",
    "flagUri": "ğŸ‡¸ğŸ‡§"
  },
  {
    "name": "Somalia",
    "nameZh": "ç´¢é©¬é‡Œ",
    "nameKm": "áŸá¼á˜áŸ‰á¶á›á¸",
    "code": "SO",
    "dialCode": "+252",
    "flagUri": "ğŸ‡¸ğŸ‡´"
  },
  {
    "name": "South Africa",
    "nameZh": "å—é",
    "nameKm": "á¢á¶á áŸ’áœáŸ’ášá·á€áá¶á„ááŸ’á”á¼á„",
    "code": "ZA",
    "dialCode": "+27",
    "flagUri": "ğŸ‡¿ğŸ‡¦"
  },
  {
    "name": "South Sudan",
    "nameZh": "å—è‹ä¸¹",
    "nameKm": "áŸáŸŠá¼áŠá„áŸ‹â€‹áá¶á„â€‹ááŸ’á”á¼á„",
    "code": "SS",
    "dialCode": "+211",
    "flagUri": "ğŸ‡¸ğŸ‡¸"
  },
  {
    "name": "South Georgia and the South Sandwich Islands",
    "nameZh": null,
    "nameKm": null,
    "code": "GS",
    "dialCode": "+500",
    "flagUri": "ğŸ‡¬ğŸ‡¸"
  },
  {
    "name": "Spain",
    "nameZh": "è¥¿ç­ç‰™",
    "nameKm": "á¢áŸáŸáŸ’á”áŸ‰á¶á‰",
    "code": "ES",
    "dialCode": "+34",
    "flagUri": "ğŸ‡ªğŸ‡¸"
  },
  {
    "name": "Sri Lanka",
    "nameZh": "æ–¯é‡Œå…°å¡",
    "nameKm": "áŸáŸ’ášá¸á›á„áŸ’á€á¶",
    "code": "LK",
    "dialCode": "+94",
    "flagUri": "ğŸ‡±ğŸ‡°"
  },
  {
    "name": "Sudan",
    "nameZh": "è‹ä¸¹",
    "nameKm": "áŸáŸŠá¼áŠá„áŸ‹",
    "code": "SD",
    "dialCode": "+249",
    "flagUri": "ğŸ‡¸ğŸ‡©"
  },
  {
    "name": "Suriname",
    "nameZh": "è‹é‡Œå—",
    "nameKm": "áŸá¼ášá¸áá¶á˜",
    "code": "SR",
    "dialCode": "+597",
    "flagUri": "ğŸ‡¸ğŸ‡·"
  },
  {
    "name": "Svalbard and Jan Mayen",
    "nameZh": "æ–¯ç“¦å°”å·´å’Œæ‰¬é©¬å»¶",
    "nameKm": "áŸáŸ’áœá¶á›á”á¶áŠ á“á·á„ á áŸ’áŸá„áŸ‹á˜áŸ‰á¶á™áŸá“",
    "code": "SJ",
    "dialCode": "+47",
    "flagUri": "ğŸ‡¸ğŸ‡¯"
  },
  {
    "name": "Swaziland",
    "nameZh": "æ–¯å¨å£«å…°",
    "nameKm": "áŸáŸ’áœá¶áŸáŸŠá¸á¡á„áŸ‹",
    "code": "SZ",
    "dialCode": "+268",
    "flagUri": "ğŸ‡¸ğŸ‡¿"
  },
  {
    "name": "Sweden",
    "nameZh": "ç‘å…¸",
    "nameKm": "áŸáŸŠá»á™á¢áŸ‚á",
    "code": "SE",
    "dialCode": "+46",
    "flagUri": "ğŸ‡¸ğŸ‡ª"
  },
  {
    "name": "Switzerland",
    "nameZh": "ç‘å£«",
    "nameKm": "áŸáŸ’áœáŸŠá¸áŸ",
    "code": "CH",
    "dialCode": "+41",
    "flagUri": "ğŸ‡¨ğŸ‡­"
  },
  {
    "name": "Syrian Arab Republic",
    "nameZh": "å™åˆ©äºš",
    "nameKm": "áŸáŸŠá¸ášá¸",
    "code": "SY",
    "dialCode": "+963",
    "flagUri": "ğŸ‡¸ğŸ‡¾"
  },
  {
    "name": "Taiwan",
    "nameZh": "å°æ¹¾",
    "nameKm": "ááŸƒáœáŸ‰á¶á“áŸ‹",
    "code": "TW",
    "dialCode": "+886",
    "flagUri": "ğŸ‡¹ğŸ‡¼"
  },
  {
    "name": "Tajikistan",
    "nameZh": "å¡”å‰å…‹æ–¯å¦",
    "nameKm": "áá¶á áŸ’áŸáŸŠá¸á‚á¸áŸáŸ’áá¶á“",
    "code": "TJ",
    "dialCode": "+992",
    "flagUri": "ğŸ‡¹ğŸ‡¯"
  },
  {
    "name": "Tanzania, United Republic of Tanzania",
    "nameZh": "å¦æ¡‘å°¼äºš",
    "nameKm": "áá„áŸ‹áŸá¶á“á¸",
    "code": "TZ",
    "dialCode": "+255",
    "flagUri": "ğŸ‡¹ğŸ‡¿"
  },
  {
    "name": "Thailand",
    "nameZh": "æ³°å›½",
    "nameKm": "ááŸƒ",
    "code": "TH",
    "dialCode": "+66",
    "flagUri": "ğŸ‡¹ğŸ‡­"
  },
  {
    "name": "Timor-Leste",
    "nameZh": "ä¸œå¸æ±¶",
    "nameKm": "á‘á¸á˜áŸášá›áŸáŸáŸ’ááŸ",
    "code": "TL",
    "dialCode": "+670",
    "flagUri": "ğŸ‡¹ğŸ‡±"
  },
  {
    "name": "Togo",
    "nameZh": "å¤šå“¥",
    "nameKm": "áá¼á áŸ’á‚áŸ„",
    "code": "TG",
    "dialCode": "+228",
    "flagUri": "ğŸ‡¹ğŸ‡¬"
  },
  {
    "name": "Tokelau",
    "nameZh": "æ‰˜å…‹åŠ³",
    "nameKm": "áá¼ááŸá¡áŸ…",
    "code": "TK",
    "dialCode": "+690",
    "flagUri": "ğŸ‡¹ğŸ‡°"
  },
  {
    "name": "Tonga",
    "nameZh": "æ±¤åŠ ",
    "nameKm": "áá»á„á áŸ’á‚á¶",
    "code": "TO",
    "dialCode": "+676",
    "flagUri": "ğŸ‡¹ğŸ‡´"
  },
  {
    "name": "Trinidad and Tobago",
    "nameZh": "ç‰¹ç«‹å°¼è¾¾å’Œå¤šå·´å“¥",
    "nameKm": "á‘áŸ’ášá¸á“á¸áŠá¶á á“á·á„â€‹áá¼á”á¶á áŸ’á‚áŸ„",
    "code": "TT",
    "dialCode": "+1868",
    "flagUri": "ğŸ‡¹ğŸ‡¹"
  },
  {
    "name": "Tunisia",
    "nameZh": "çªå°¼æ–¯",
    "nameKm": "á‘á»á™á“á¸áŸáŸŠá¸",
    "code": "TN",
    "dialCode": "+216",
    "flagUri": "ğŸ‡¹ğŸ‡³"
  },
  {
    "name": "Turkey",
    "nameZh": "åœŸè€³å…¶",
    "nameKm": "áá½á€á‚á¸",
    "code": "TR",
    "dialCode": "+90",
    "flagUri": "ğŸ‡¹ğŸ‡·"
  },
  {
    "name": "Turkmenistan",
    "nameZh": "åœŸåº“æ›¼æ–¯å¦",
    "nameKm": "áá½á€á˜áŸ‰áŸá“á¸áŸáŸ’áá¶á“",
    "code": "TM",
    "dialCode": "+993",
    "flagUri": "ğŸ‡¹ğŸ‡²"
  },
  {
    "name": "Turks and Caicos Islands",
    "nameZh": "ç‰¹å…‹æ–¯å’Œå‡¯ç§‘æ–¯ç¾¤å²›",
    "nameKm": "á€áŸ„áŸ‡â€‹á‘á½á‚ á“á·á„ á€áŸƒá€á¼áŸ",
    "code": "TC",
    "dialCode": "+1649",
    "flagUri": "ğŸ‡¹ğŸ‡¨"
  },
  {
    "name": "Tuvalu",
    "nameZh": "å›¾ç“¦å¢",
    "nameKm": "á‘á¼áœáŸ‰á¶á›á¼",
    "code": "TV",
    "dialCode": "+688",
    "flagUri": "ğŸ‡¹ğŸ‡»"
  },
  {
    "name": "Uganda",
    "nameZh": "ä¹Œå¹²è¾¾",
    "nameKm": "á¢áŸŠá¼á áŸ’á‚á„áŸ‹áŠá¶",
    "code": "UG",
    "dialCode": "+256",
    "flagUri": "ğŸ‡ºğŸ‡¬"
  },
  {
    "name": "Ukraine",
    "nameZh": "ä¹Œå…‹å…°",
    "nameKm": "á¢áŸŠá»á™á€áŸ’ášáŸ‚á“",
    "code": "UA",
    "dialCode": "+380",
    "flagUri": "ğŸ‡ºğŸ‡¦"
  },
  {
    "name": "United Arab Emirates",
    "nameZh": "é˜¿æ‹‰ä¼¯è”åˆé…‹é•¿å›½",
    "nameKm": "á¢áŸá˜á¸ášáŸ‰á¶áâ€‹á¢á¶ášáŸ‰á¶á”áŸ‹â€‹ášá½á˜",
    "code": "AE",
    "dialCode": "+971",
    "flagUri": "ğŸ‡¦ğŸ‡ª"
  },
  {
    "name": "United Kingdom",
    "nameZh": "è‹±å›½",
    "nameKm": "á…á€áŸ’ášá—á–â€‹á¢á„áŸ‹á‚áŸ’á›áŸáŸ",
    "code": "GB",
    "dialCode": "+44",
    "flagUri": "ğŸ‡¬ğŸ‡§"
  },
  {
    "name": "United States",
    "nameZh": "ç¾å›½",
    "nameKm": "áŸá ášáŠáŸ’á‹á¢á¶á˜áŸášá·á€",
    "code": "US",
    "dialCode": "+1",
    "flagUri": "ğŸ‡ºğŸ‡¸"
  },
  {
    "name": "Uruguay",
    "nameZh": "ä¹Œæ‹‰åœ­",
    "nameKm": "á¢áŸŠá»á™ášá¼á áŸ’á‚á¶á™",
    "code": "UY",
    "dialCode": "+598",
    "flagUri": "ğŸ‡ºğŸ‡¾"
  },
  {
    "name": "Uzbekistan",
    "nameZh": "ä¹Œå…¹åˆ«å…‹æ–¯å¦",
    "nameKm": "á¢áŸŠá¼áŸá”áŸá‚á¸áŸáŸ’áá¶á“",
    "code": "UZ",
    "dialCode": "+998",
    "flagUri": "ğŸ‡ºğŸ‡¿"
  },
  {
    "name": "Vanuatu",
    "nameZh": "ç“¦åŠªé˜¿å›¾",
    "nameKm": "áœáŸ‰á¶á“á¼á‘á¼",
    "code": "VU",
    "dialCode": "+678",
    "flagUri": "ğŸ‡»ğŸ‡º"
  },
  {
    "name": "Venezuela, Bolivarian Republic of Venezuela",
    "nameZh": "å§”å†…ç‘æ‹‰",
    "nameKm": "áœáŸ‰áŸááŸáŸáŸŠá»á™á¢áŸá¡á¶",
    "code": "VE",
    "dialCode": "+58",
    "flagUri": "ğŸ‡»ğŸ‡ª"
  },
  {
    "name": "Vietnam",
    "nameZh": "è¶Šå—",
    "nameKm": "áœáŸ€ááá¶á˜",
    "code": "VN",
    "dialCode": "+84",
    "flagUri": "ğŸ‡»ğŸ‡³"
  },
  {
    "name": "Virgin Islands, British",
    "nameZh": "è‹±å±ç»´å°”äº¬ç¾¤å²›",
    "nameKm": "á€áŸ„áŸ‡â€‹áœáºá‡á·á“â€‹á…á€áŸ’ášá—á–â€‹á¢á„áŸ‹á‚áŸ’á›áŸáŸ",
    "code": "VG",
    "dialCode": "+1284",
    "flagUri": "ğŸ‡»ğŸ‡¬"
  },
  {
    "name": "Virgin Islands, U.S.",
    "nameZh": "ç¾å±ç»´å°”äº¬ç¾¤å²›",
    "nameKm": "á€áŸ„áŸ‡â€‹áœáºá‡á¸á“â€‹á¢á¶á˜áŸášá·á€",
    "code": "VI",
    "dialCode": "+1340",
    "flagUri": "ğŸ‡»ğŸ‡®"
  },
  {
    "name": "Wallis and Futuna",
    "nameZh": "ç“¦åˆ©æ–¯å’Œå¯Œå›¾çº³",
    "nameKm": "áœáŸ‰á¶á›á¸áŸ á“á·á„â€‹á áŸ’áœá¼á‘á¼áá¶",
    "code": "WF",
    "dialCode": "+681",
    "flagUri": "ğŸ‡¼ğŸ‡«"
  },
  {
    "name": "Yemen",
    "nameZh": "ä¹Ÿé—¨",
    "nameKm": "á™áŸá˜áŸ‰áŸ‚á“",
    "code": "YE",
    "dialCode": "+967",
    "flagUri": "ğŸ‡¾ğŸ‡ª"
  },
  {
    "name": "Zambia",
    "nameZh": "èµæ¯”äºš",
    "nameKm": "áŸáŸ†á”áŸŠá¸",
    "code": "ZM",
    "dialCode": "+260",
    "flagUri": "ğŸ‡¿ğŸ‡²"
  },
  {
    "name": "Zimbabwe",
    "nameZh": "æ´¥å·´å¸ƒéŸ¦",
    "nameKm": "áŸáŸŠá¸á˜á”á¶áœáŸ‰áŸ",
    "code": "ZW",
    "dialCode": "+263",
    "flagUri": "ğŸ‡¿ğŸ‡¼"
  }
]